start=new Date('2022-03-12T00:00:00.000Z').valueOf();
sats=[{"CENTER_NAME":"EARTH","GP_ID":"198522866","TLE_LINE2":"2 51856  53.2173 103.0305 0001101  64.9529 272.7764 15.73771238  1952","PERIOD":"91.500","BSTAR":"-0.00528610000000","APOAPSIS":"348.873","OBJECT_ID":"2022-022E","FILE":"3355378","OBJECT_NAME":"STARLINK-3568","MEAN_ANOMALY":"272.7764","INCLINATION":"53.2173","RA_OF_ASC_NODE":"103.0305","REF_FRAME":"TEME","SITE":"AFETR","MEAN_MOTION_DOT":"-0.00700712","LAUNCH_DATE":"2022-03-03","PERIAPSIS":"347.391","SEMIMAJOR_AXIS":"6726.267","TLE_LINE1":"1 51856U 22022E   22070.91667824 -.00700712  00000-0 -52861-2 0  9990","MEAN_MOTION":"15.73771238","TIME_SYSTEM":"UTC","ARG_OF_PERICENTER":"64.9529","COUNTRY_CODE":"US","NORAD_CAT_ID":"51856","EPOCH":"2022-03-11T22:00:00.999936","EPHEMERIS_TYPE":"0","DECAY_DATE":null,"MEAN_MOTION_DDOT":"0.0000000000000","REV_AT_EPOCH":"195","RCS_SIZE":null,"MEAN_ELEMENT_THEORY":"SGP4","ECCENTRICITY":"0.00011010","OBJECT_TYPE":"PAYLOAD","ELEMENT_SET_NO":"999","CLASSIFICATION_TYPE":"U"},{"SEMIMAJOR_AXIS":"6725.986","PERIAPSIS":"347.094","LAUNCH_DATE":"2022-03-03","MEAN_MOTION_DOT":"-0.00776519","MEAN_MOTION":"15.73869918","TLE_LINE1":"1 51857U 22022F   22070.91667824 -.00776519  00000-0 -58863-2 0  9997","MEAN_ANOMALY":"282.8600","OBJECT_NAME":"STARLINK-3571","FILE":"3355378","OBJECT_ID":"2022-022F","APOAPSIS":"348.608","BSTAR":"-0.00588630000000","TLE_LINE2":"2 51857  53.2173 103.0270 0001125  56.6918 282.8600 15.73869918  1954","PERIOD":"91.494","CENTER_NAME":"EARTH","GP_ID":"198522451","SITE":"AFETR","REF_FRAME":"TEME","RA_OF_ASC_NODE":"103.0270","INCLINATION":"53.2173","RCS_SIZE":null,"MEAN_ELEMENT_THEORY":"SGP4","REV_AT_EPOCH":"195","MEAN_MOTION_DDOT":"0.0000000000000","CLASSIFICATION_TYPE":"U","ELEMENT_SET_NO":"999","OBJECT_TYPE":"PAYLOAD","ECCENTRICITY":"0.00011250","NORAD_CAT_ID":"51857","COUNTRY_CODE":"US","ARG_OF_PERICENTER":"56.6918","TIME_SYSTEM":"UTC","DECAY_DATE":null,"EPHEMERIS_TYPE":"0","EPOCH":"2022-03-11T22:00:00.999936"},{"NORAD_CAT_ID":"51858","TIME_SYSTEM":"UTC","ARG_OF_PERICENTER":"57.7342","COUNTRY_CODE":"US","DECAY_DATE":null,"EPHEMERIS_TYPE":"0","EPOCH":"2022-03-11T22:00:00.999936","MEAN_ELEMENT_THEORY":"SGP4","RCS_SIZE":null,"REV_AT_EPOCH":"195","MEAN_MOTION_DDOT":"0.0000000000000","CLASSIFICATION_TYPE":"U","ELEMENT_SET_NO":"999","OBJECT_TYPE":"PAYLOAD","ECCENTRICITY":"0.00011560","OBJECT_NAME":"STARLINK-3563","FILE":"3355378","MEAN_ANOMALY":"281.2110","OBJECT_ID":"2022-022G","APOAPSIS":"348.720","CENTER_NAME":"EARTH","GP_ID":"198522347","TLE_LINE2":"2 51858  53.2173 103.0280 0001156  57.7342 281.2110 15.73837763  1955","BSTAR":"-0.00570660000000","PERIOD":"91.496","SITE":"AFETR","INCLINATION":"53.2173","REF_FRAME":"TEME","RA_OF_ASC_NODE":"103.0280","SEMIMAJOR_AXIS":"6726.077","PERIAPSIS":"347.165","MEAN_MOTION_DOT":"-0.00753829","LAUNCH_DATE":"2022-03-03","TLE_LINE1":"1 51858U 22022G   22070.91667824 -.00753829  00000-0 -57066-2 0  9991","MEAN_MOTION":"15.73837763"},{"SITE":"AFETR","REF_FRAME":"TEME","RA_OF_ASC_NODE":"103.0234","INCLINATION":"53.2173","MEAN_ANOMALY":"281.8322","FILE":"3355378","OBJECT_NAME":"STARLINK-3560","OBJECT_ID":"2022-022H","APOAPSIS":"348.306","BSTAR":"-0.00629590000000","TLE_LINE2":"2 51859  53.2173 103.0234 0001059  59.5350 281.8322 15.73960258  1964","PERIOD":"91.489","GP_ID":"198522555","CENTER_NAME":"EARTH","MEAN_MOTION":"15.73960258","TLE_LINE1":"1 51859U 22022H   22070.91667824 -.00828565  00000-0 -62959-2 0  9999","PERIAPSIS":"346.881","SEMIMAJOR_AXIS":"6725.729","LAUNCH_DATE":"2022-03-03","MEAN_MOTION_DOT":"-0.00828565","DECAY_DATE":null,"EPHEMERIS_TYPE":"0","EPOCH":"2022-03-11T22:00:00.999936","NORAD_CAT_ID":"51859","COUNTRY_CODE":"US","TIME_SYSTEM":"UTC","ARG_OF_PERICENTER":"59.5350","CLASSIFICATION_TYPE":"U","ELEMENT_SET_NO":"999","OBJECT_TYPE":"PAYLOAD","ECCENTRICITY":"0.00010590","MEAN_ELEMENT_THEORY":"SGP4","RCS_SIZE":null,"REV_AT_EPOCH":"196","MEAN_MOTION_DDOT":"0.0000000000000"},{"REV_AT_EPOCH":"196","MEAN_MOTION_DDOT":"0.0000000000000","RCS_SIZE":null,"MEAN_ELEMENT_THEORY":"SGP4","OBJECT_TYPE":"PAYLOAD","ECCENTRICITY":"0.00011310","CLASSIFICATION_TYPE":"U","ELEMENT_SET_NO":"999","NORAD_CAT_ID":"51860","TIME_SYSTEM":"UTC","ARG_OF_PERICENTER":"55.4494","COUNTRY_CODE":"US","EPHEMERIS_TYPE":"0","EPOCH":"2022-03-11T22:00:00.999936","DECAY_DATE":null,"MEAN_MOTION_DOT":"-0.00796158","LAUNCH_DATE":"2022-03-03","PERIAPSIS":"347.003","SEMIMAJOR_AXIS":"6725.899","MEAN_MOTION":"15.73900356","TLE_LINE1":"1 51860U 22022J   22070.91667824 -.00796158  00000-0 -60415-2 0  9998","APOAPSIS":"348.525","CENTER_NAME":"EARTH","GP_ID":"198522763","TLE_LINE2":"2 51860  53.2173 103.0256 0001131  55.4494 284.7091 15.73900356  1963","PERIOD":"91.492","BSTAR":"-0.00604150000000","OBJECT_NAME":"STARLINK-3559","FILE":"3355378","MEAN_ANOMALY":"284.7091","OBJECT_ID":"2022-022J","INCLINATION":"53.2173","REF_FRAME":"TEME","RA_OF_ASC_NODE":"103.0256","SITE":"AFETR"},{"RCS_SIZE":null,"MEAN_ELEMENT_THEORY":"SGP4","REV_AT_EPOCH":"195","MEAN_MOTION_DDOT":"0.0000000000000","CLASSIFICATION_TYPE":"U","ELEMENT_SET_NO":"999","OBJECT_TYPE":"PAYLOAD","ECCENTRICITY":"0.00011270","NORAD_CAT_ID":"51861","COUNTRY_CODE":"US","TIME_SYSTEM":"UTC","ARG_OF_PERICENTER":"52.9429","DECAY_DATE":null,"EPHEMERIS_TYPE":"0","EPOCH":"2022-03-11T22:00:00.999936","PERIAPSIS":"346.678","SEMIMAJOR_AXIS":"6725.571","LAUNCH_DATE":"2022-03-03","MEAN_MOTION_DOT":"-0.00850938","MEAN_MOTION":"15.74015492","TLE_LINE1":"1 51861U 22022K   22070.91667824 -.00850938  00000-0 -64678-2 0  9991","MEAN_ANOMALY":"289.6311","FILE":"3355378","OBJECT_NAME":"STARLINK-3562","OBJECT_ID":"2022-022K","APOAPSIS":"348.194","TLE_LINE2":"2 51861  53.2173 103.0209 0001127  52.9429 289.6311 15.74015492  1954","PERIOD":"91.486","BSTAR":"-0.00646780000000","CENTER_NAME":"EARTH","GP_ID":"198522140","SITE":"AFETR","REF_FRAME":"TEME","RA_OF_ASC_NODE":"103.0209","INCLINATION":"53.2173"},{"APOAPSIS":"348.400","GP_ID":"198494987","CENTER_NAME":"EARTH","BSTAR":"-0.00617720000000","TLE_LINE2":"2 51862  53.2173 103.0244 0001072  62.9293 277.8345 15.73930361  2578","PERIOD":"91.491","FILE":"3355270","OBJECT_NAME":"STARLINK-3508","MEAN_ANOMALY":"277.8345","OBJECT_ID":"2022-022L","INCLINATION":"53.2173","REF_FRAME":"TEME","RA_OF_ASC_NODE":"103.0244","SITE":"AFETR","MEAN_MOTION_DOT":"-0.00813388","LAUNCH_DATE":"2022-03-03","PERIAPSIS":"346.958","SEMIMAJOR_AXIS":"6725.814","MEAN_MOTION":"15.73930361","TLE_LINE1":"1 51862U 22022L   22070.91667824 -.00813388  00000-0 -61772-2 0  9992","NORAD_CAT_ID":"51862","TIME_SYSTEM":"UTC","ARG_OF_PERICENTER":"62.9293","COUNTRY_CODE":"US","EPHEMERIS_TYPE":"0","EPOCH":"2022-03-11T22:00:00.999936","DECAY_DATE":null,"REV_AT_EPOCH":"257","MEAN_MOTION_DDOT":"0.0000000000000","RCS_SIZE":null,"MEAN_ELEMENT_THEORY":"SGP4","OBJECT_TYPE":"PAYLOAD","ECCENTRICITY":"0.00010720","CLASSIFICATION_TYPE":"U","ELEMENT_SET_NO":"999"},{"TLE_LINE2":"2 51863  53.2173 103.0185 0001111  52.4989 291.2782 15.74067317  1985","BSTAR":"-0.00656910000000","PERIOD":"91.483","GP_ID":"198522244","CENTER_NAME":"EARTH","APOAPSIS":"348.036","OBJECT_ID":"2022-022M","MEAN_ANOMALY":"291.2782","OBJECT_NAME":"STARLINK-3555","FILE":"3355378","RA_OF_ASC_NODE":"103.0185","REF_FRAME":"TEME","INCLINATION":"53.2173","SITE":"AFETR","LAUNCH_DATE":"2022-03-03","MEAN_MOTION_DOT":"-0.00864755","PERIAPSIS":"346.541","SEMIMAJOR_AXIS":"6725.424","MEAN_MOTION":"15.74067317","TLE_LINE1":"1 51863U 22022M   22070.91667824 -.00864755  00000-0 -65691-2 0  9991","COUNTRY_CODE":"US","ARG_OF_PERICENTER":"52.4989","TIME_SYSTEM":"UTC","NORAD_CAT_ID":"51863","EPOCH":"2022-03-11T22:00:00.999936","EPHEMERIS_TYPE":"0","DECAY_DATE":null,"MEAN_MOTION_DDOT":"0.0000000000000","REV_AT_EPOCH":"198","MEAN_ELEMENT_THEORY":"SGP4","RCS_SIZE":null,"ECCENTRICITY":"0.00011110","OBJECT_TYPE":"PAYLOAD","ELEMENT_SET_NO":"999","CLASSIFICATION_TYPE":"U"},{"MEAN_MOTION_DDOT":"0.0000000000000","REV_AT_EPOCH":"196","MEAN_ELEMENT_THEORY":"SGP4","RCS_SIZE":null,"ECCENTRICITY":"0.00010900","OBJECT_TYPE":"PAYLOAD","ELEMENT_SET_NO":"999","CLASSIFICATION_TYPE":"U","COUNTRY_CODE":"US","TIME_SYSTEM":"UTC","ARG_OF_PERICENTER":"55.3367","NORAD_CAT_ID":"51864","EPOCH":"2022-03-11T22:00:00.999936","EPHEMERIS_TYPE":"0","DECAY_DATE":null,"LAUNCH_DATE":"2022-03-03","MEAN_MOTION_DOT":"-0.00841077","SEMIMAJOR_AXIS":"6725.647","PERIAPSIS":"346.779","MEAN_MOTION":"15.73988735","TLE_LINE1":"1 51864U 22022N   22070.91667824 -.00841077  00000-0 -63927-2 0  9994","TLE_LINE2":"2 51864  53.2173 103.0220 0001090  55.3367 286.6338 15.73988735  1962","PERIOD":"91.487","BSTAR":"-0.00639270000000","GP_ID":"198522867","CENTER_NAME":"EARTH","APOAPSIS":"348.245","OBJECT_ID":"2022-022N","MEAN_ANOMALY":"286.6338","FILE":"3355378","OBJECT_NAME":"STARLINK-3548","REF_FRAME":"TEME","RA_OF_ASC_NODE":"103.0220","INCLINATION":"53.2173","SITE":"AFETR"},{"RA_OF_ASC_NODE":"103.0161","REF_FRAME":"TEME","INCLINATION":"53.2173","SITE":"AFETR","BSTAR":"-0.00661470000000","TLE_LINE2":"2 51865  53.2173 103.0161 0001022  61.8826 283.0942 15.74116325  1954","PERIOD":"91.480","GP_ID":"198522452","CENTER_NAME":"EARTH","APOAPSIS":"347.836","OBJECT_ID":"2022-022P","MEAN_ANOMALY":"283.0942","FILE":"3355378","OBJECT_NAME":"STARLINK-3503","TLE_LINE1":"1 51865U 22022P   22070.91667824 -.00871834  00000-0 -66147-2 0  9996","MEAN_MOTION":"15.74116325","LAUNCH_DATE":"2022-03-03","MEAN_MOTION_DOT":"-0.00871834","PERIAPSIS":"346.462","SEMIMAJOR_AXIS":"6725.284","EPOCH":"2022-03-11T22:00:00.999936","EPHEMERIS_TYPE":"0","DECAY_DATE":null,"COUNTRY_CODE":"US","ARG_OF_PERICENTER":"61.8826","TIME_SYSTEM":"UTC","NORAD_CAT_ID":"51865","ECCENTRICITY":"0.00010220","OBJECT_TYPE":"PAYLOAD","ELEMENT_SET_NO":"999","CLASSIFICATION_TYPE":"U","MEAN_MOTION_DDOT":"0.0000000000000","REV_AT_EPOCH":"195","MEAN_ELEMENT_THEORY":"SGP4","RCS_SIZE":null}];
